{
  "type": "FeatureCollection",
  "features": [
    {
      "type": "Feature",
      "properties": {
        "norad_id": 33886,
        "name": "IRIDIUM 33 DEB",
        "group": "iridium-33-debris",
        "lat": -19.37291242387705,
        "lon": -109.33749198632597,
        "alt_km": 772.8169989673761,
        "timestamp": "2025-12-07T14:37:05.588652+00:00",
        "meta_object_name": "IRIDIUM 33 DEB",
        "meta_object_id": "1997-051BF",
        "meta_epoch": "2025-12-06T19:52:39.313056",
        "meta_mean_motion": 14.3604107,
        "meta_eccentricity": 0.0012064,
        "meta_inclination": 86.3832,
        "meta_ra_of_asc_node": 69.7167,
        "meta_arg_of_pericenter": 264.4153,
        "meta_mean_anomaly": 220.7089,
        "meta_ephemeris_type": 0,
        "meta_classification_type": "U",
        "meta_norad_cat_id": 33886,
        "meta_element_set_no": 999,
        "meta_rev_at_epoch": 87967,
        "meta_bstar": 0.00039145812,
        "meta_mean_motion_dot": 1.158e-05,
        "meta_mean_motion_ddot": 0,
        "tle_line1": "1 33886U 97051BF  25340.82823279  .00001158  00000+0  39146-3 0  9995",
        "tle_line2": "2 33886  86.3832  69.7167 0012064 264.4153 220.7089 14.36041070879675"
      },
      "geometry": {
        "type": "Point",
        "coordinates": [
          -109.33749198632597,
          -19.37291242387705
        ]
      }
    },
    {
      "type": "Feature",
      "properties": {
        "norad_id": 33887,
        "name": "IRIDIUM 33 DEB",
        "group": "iridium-33-debris",
        "lat": 65.64305502900208,
        "lon": 177.39641507393162,
        "alt_km": 763.5673786028574,
        "timestamp": "2025-12-07T14:37:05.588662+00:00",
        "meta_object_name": "IRIDIUM 33 DEB",
        "meta_object_id": "1997-051BG",
        "meta_epoch": "2025-12-06T20:31:49.734336",
        "meta_mean_motion": 14.37213309,
        "meta_eccentricity": 0.00040893,
        "meta_inclination": 86.3048,
        "meta_ra_of_asc_node": 5.928,
        "meta_arg_of_pericenter": 254.3526,
        "meta_mean_anomaly": 282.8028,
        "meta_ephemeris_type": 0,
        "meta_classification_type": "U",
        "meta_norad_cat_id": 33887,
        "meta_element_set_no": 999,
        "meta_rev_at_epoch": 88080,
        "meta_bstar": 0.00026751053,
        "meta_mean_motion_dot": 8.15e-06,
        "meta_mean_motion_ddot": 0,
        "tle_line1": "1 33887U 97051BG  25340.85543674  .00000815  00000+0  26751-3 0  9994",
        "tle_line2": "2 33887  86.3048   5.9280 0004089 254.3526 282.8028 14.37213309880809"
      },
      "geometry": {
        "type": "Point",
        "coordinates": [
          177.39641507393162,
          65.64305502900208
        ]
      }
    },
    {
      "type": "Feature",
      "properties": {
        "norad_id": 33953,
        "name": "IRIDIUM 33 DEB",
        "group": "iridium-33-debris",
        "lat": -3.896072146910317,
        "lon": 55.759542610263715,
        "alt_km": 719.0631631471297,
        "timestamp": "2025-12-07T14:37:05.588673+00:00",
        "meta_object_name": "IRIDIUM 33 DEB",
        "meta_object_id": "1997-051BN",
        "meta_epoch": "2025-12-06T22:56:34.592352",
        "meta_mean_motion": 14.55236299,
        "meta_eccentricity": 0.00184676,
        "meta_inclination": 86.3847,
        "meta_ra_of_asc_node": 56.2896,
        "meta_arg_of_pericenter": 120.4605,
        "meta_mean_anomaly": 56.4432,
        "meta_ephemeris_type": 0,
        "meta_classification_type": "U",
        "meta_norad_cat_id": 33953,
        "meta_element_set_no": 999,
        "meta_rev_at_epoch": 88219,
        "meta_bstar": 0.0019623469,
        "meta_mean_motion_dot": 8.534e-05,
        "meta_mean_motion_ddot": 0,
        "tle_line1": "1 33953U 97051BN  25340.95595593  .00008534  00000+0  19623-2 0  9991",
        "tle_line2": "2 33953  86.3847  56.2896 0018467 120.4605  56.4432 14.55236299882199"
      },
      "geometry": {
        "type": "Point",
        "coordinates": [
          55.759542610263715,
          -3.896072146910317
        ]
      }
    },
    {
      "type": "Feature",
      "properties": {
        "norad_id": 33960,
        "name": "IRIDIUM 33 DEB",
        "group": "iridium-33-debris",
        "lat": -27.096810253767664,
        "lon": -69.98922538941412,
        "alt_km": 620.5591548182792,
        "timestamp": "2025-12-07T14:37:05.588683+00:00",
        "meta_object_name": "IRIDIUM 33 DEB",
        "meta_object_id": "1997-051BV",
        "meta_epoch": "2025-12-06T21:11:12.890976",
        "meta_mean_motion": 14.84724229,
        "meta_eccentricity": 0.00072807,
        "meta_inclination": 86.2539,
        "meta_ra_of_asc_node": 292.274,
        "meta_arg_of_pericenter": 70.5622,
        "meta_mean_anomaly": 342.8515,
        "meta_ephemeris_type": 0,
        "meta_classification_type": "U",
        "meta_norad_cat_id": 33960,
        "meta_element_set_no": 999,
        "meta_rev_at_epoch": 88780,
        "meta_bstar": 0.0054098314,
        "meta_mean_motion_dot": 0.00046117,
        "meta_mean_motion_ddot": 0,
        "tle_line1": "1 33960U 97051BV  25340.88278809  .00046117  00000+0  54098-2 0  9993",
        "tle_line2": "2 33960  86.2539 292.2740 0007280  70.5622 342.8515 14.84724229887803"
      },
      "geometry": {
        "type": "Point",
        "coordinates": [
          -69.98922538941412,
          -27.096810253767664
        ]
      }
    },
    {
      "type": "Feature",
      "properties": {
        "norad_id": 33966,
        "name": "IRIDIUM 33 DEB",
        "group": "iridium-33-debris",
        "lat": -47.66915822752133,
        "lon": -127.79959876487239,
        "alt_km": 729.5294408268055,
        "timestamp": "2025-12-07T14:37:05.588693+00:00",
        "meta_object_name": "IRIDIUM 33 DEB",
        "meta_object_id": "1997-051CB",
        "meta_epoch": "2025-12-06T23:13:13.155168",
        "meta_mean_motion": 14.4955764,
        "meta_eccentricity": 0.00067523,
        "meta_inclination": 86.3928,
        "meta_ra_of_asc_node": 48.5046,
        "meta_arg_of_pericenter": 208.2981,
        "meta_mean_anomaly": 273.5002,
        "meta_ephemeris_type": 0,
        "meta_classification_type": "U",
        "meta_norad_cat_id": 33966,
        "meta_element_set_no": 999,
        "meta_rev_at_epoch": 88358,
        "meta_bstar": 0.00095201408,
        "meta_mean_motion_dot": 3.671e-05,
        "meta_mean_motion_ddot": 0,
        "tle_line1": "1 33966U 97051CB  25340.96751337  .00003671  00000+0  95201-3 0  9990",
        "tle_line2": "2 33966  86.3928  48.5046 0006752 208.2981 273.5002 14.49557640883588"
      },
      "geometry": {
        "type": "Point",
        "coordinates": [
          -127.79959876487239,
          -47.66915822752133
        ]
      }
    },
    {
      "type": "Feature",
      "properties": {
        "norad_id": 34071,
        "name": "IRIDIUM 33 DEB",
        "group": "iridium-33-debris",
        "lat": -63.34777893759123,
        "lon": 12.743533968726306,
        "alt_km": 741.6689935280665,
        "timestamp": "2025-12-07T14:37:05.588704+00:00",
        "meta_object_name": "IRIDIUM 33 DEB",
        "meta_object_id": "1997-051CE",
        "meta_epoch": "2025-12-06T15:42:54.692352",
        "meta_mean_motion": 14.49424695,
        "meta_eccentricity": 0.00097042,
        "meta_inclination": 86.3458,
        "meta_ra_of_asc_node": 20.4733,
        "meta_arg_of_pericenter": 123.9868,
        "meta_mean_anomaly": 236.226,
        "meta_ephemeris_type": 0,
        "meta_classification_type": "U",
        "meta_norad_cat_id": 34071,
        "meta_element_set_no": 999,
        "meta_rev_at_epoch": 88246,
        "meta_bstar": 0.0010899387,
        "meta_mean_motion_dot": 4.19e-05,
        "meta_mean_motion_ddot": 0,
        "tle_line1": "1 34071U 97051CE  25340.65479968  .00004190  00000+0  10899-2 0  9997",
        "tle_line2": "2 34071  86.3458  20.4733 0009704 123.9868 236.2260 14.49424695882464"
      },
      "geometry": {
        "type": "Point",
        "coordinates": [
          12.743533968726306,
          -63.34777893759123
        ]
      }
    },
    {
      "type": "Feature",
      "properties": {
        "norad_id": 34077,
        "name": "IRIDIUM 33 DEB",
        "group": "iridium-33-debris",
        "lat": -36.133169465628335,
        "lon": -123.58811144692069,
        "alt_km": 691.538974470227,
        "timestamp": "2025-12-07T14:37:05.588715+00:00",
        "meta_object_name": "IRIDIUM 33 DEB",
        "meta_object_id": "1997-051CL",
        "meta_epoch": "2025-12-06T23:26:07.254240",
        "meta_mean_motion": 14.64704076,
        "meta_eccentricity": 0.00107432,
        "meta_inclination": 86.3867,
        "meta_ra_of_asc_node": 54.0461,
        "meta_arg_of_pericenter": 57.7829,
        "meta_mean_anomaly": 64.6743,
        "meta_ephemeris_type": 0,
        "meta_classification_type": "U",
        "meta_norad_cat_id": 34077,
        "meta_element_set_no": 999,
        "meta_rev_at_epoch": 88248,
        "meta_bstar": 0.0026763823,
        "meta_mean_motion_dot": 0.00014292,
        "meta_mean_motion_ddot": 0,
        "tle_line1": "1 34077U 97051CL  25340.97647285  .00014292  00000+0  26764-2 0  9999",
        "tle_line2": "2 34077  86.3867  54.0461 0010743  57.7829  64.6743 14.64704076882483"
      },
      "geometry": {
        "type": "Point",
        "coordinates": [
          -123.58811144692069,
          -36.133169465628335
        ]
      }
    }
  ]
}